CCSDS_OMM_VERS = 2.0
CREATION_DATE  = 
ORIGINATOR     = 

OBJECT_NAME    = HULIANWANG DIGUI-147
OBJECT_ID      = 2026-013B
CENTER_NAME    = EARTH
REF_FRAME      = TEME
TIME_SYSTEM    = UTC
MEAN_ELEMENT_THEORY = SGP/SGP4

EPOCH          = 2026-02-08T09:04:53.560416
MEAN_MOTION    = 13.83183237
ECCENTRICITY   = .00008033
INCLINATION    = 50.0070
RA_OF_ASC_NODE = 104.8767
ARG_OF_PERICENTER = 347.2964
MEAN_ANOMALY   = 12.7911

EPHEMERIS_TYPE = 0
CLASSIFICATION_TYPE = U
NORAD_CAT_ID   = 67523
ELEMENT_SET_NO = 999
REV_AT_EPOCH   = 280
BSTAR          = .11369919E-3
MEAN_MOTION_DOT = -.18E-6
MEAN_MOTION_DDOT = 0

CCSDS_OMM_VERS = 2.0
CREATION_DATE  = 
ORIGINATOR     = 

OBJECT_NAME    = HULIANWANG DIGUI-148
OBJECT_ID      = 2026-013C
CENTER_NAME    = EARTH
REF_FRAME      = TEME
TIME_SYSTEM    = UTC
MEAN_ELEMENT_THEORY = SGP/SGP4

EPOCH          = 2026-02-08T12:27:47.181312
MEAN_MOTION    = 13.83304725
ECCENTRICITY   = .0002833
INCLINATION    = 50.0181
RA_OF_ASC_NODE = 104.3957
ARG_OF_PERICENTER = 153.2013
MEAN_ANOMALY   = 206.9030

EPHEMERIS_TYPE = 0
CLASSIFICATION_TYPE = U
NORAD_CAT_ID   = 67524
ELEMENT_SET_NO = 999
REV_AT_EPOCH   = 282
BSTAR          = .13384E-3
MEAN_MOTION_DOT = .4E-7
MEAN_MOTION_DDOT = 0

CCSDS_OMM_VERS = 2.0
CREATION_DATE  = 
ORIGINATOR     = 

OBJECT_NAME    = HULIANWANG DIGUI-149
OBJECT_ID      = 2026-013D
CENTER_NAME    = EARTH
REF_FRAME      = TEME
TIME_SYSTEM    = UTC
MEAN_ELEMENT_THEORY = SGP/SGP4

EPOCH          = 2026-02-08T15:52:05.963232
MEAN_MOTION    = 13.83196814
ECCENTRICITY   = .00011631
INCLINATION    = 50.0083
RA_OF_ASC_NODE = 103.7107
ARG_OF_PERICENTER = 77.8678
MEAN_ANOMALY   = 282.2348

EPHEMERIS_TYPE = 0
CLASSIFICATION_TYPE = U
NORAD_CAT_ID   = 67525
ELEMENT_SET_NO = 999
REV_AT_EPOCH   = 284
BSTAR          = .12755556E-3
MEAN_MOTION_DOT = -.3E-7
MEAN_MOTION_DDOT = 0

CCSDS_OMM_VERS = 2.0
CREATION_DATE  = 
ORIGINATOR     = 

OBJECT_NAME    = HULIANWANG DIGUI-150
OBJECT_ID      = 2026-013E
CENTER_NAME    = EARTH
REF_FRAME      = TEME
TIME_SYSTEM    = UTC
MEAN_ELEMENT_THEORY = SGP/SGP4

EPOCH          = 2026-02-09T07:19:37.398144
MEAN_MOTION    = 13.82882439
ECCENTRICITY   = .000069
INCLINATION    = 50.0027
RA_OF_ASC_NODE = 101.1142
ARG_OF_PERICENTER = 74.8065
MEAN_ANOMALY   = 285.2907

EPHEMERIS_TYPE = 0
CLASSIFICATION_TYPE = U
NORAD_CAT_ID   = 67526
ELEMENT_SET_NO = 999
REV_AT_EPOCH   = 295
BSTAR          = .12099E-3
MEAN_MOTION_DOT = -.11E-6
MEAN_MOTION_DDOT = 0

CCSDS_OMM_VERS = 2.0
CREATION_DATE  = 
ORIGINATOR     = 

OBJECT_NAME    = HULIANWANG DIGUI-151
OBJECT_ID      = 2026-013F
CENTER_NAME    = EARTH
REF_FRAME      = TEME
TIME_SYSTEM    = UTC
MEAN_ELEMENT_THEORY = SGP/SGP4

EPOCH          = 2026-02-09T05:34:03.008064
MEAN_MOTION    = 13.85244974
ECCENTRICITY   = .0002611
INCLINATION    = 50.0216
RA_OF_ASC_NODE = 101.4104
ARG_OF_PERICENTER = 147.2392
MEAN_ANOMALY   = 212.8667

EPHEMERIS_TYPE = 0
CLASSIFICATION_TYPE = U
NORAD_CAT_ID   = 67527
ELEMENT_SET_NO = 999
REV_AT_EPOCH   = 292
BSTAR          = .14529E-3
MEAN_MOTION_DOT = .22E-6
MEAN_MOTION_DDOT = 0

CCSDS_OMM_VERS = 2.0
CREATION_DATE  = 
ORIGINATOR     = 

OBJECT_NAME    = HULIANWANG DIGUI-152
OBJECT_ID      = 2026-013G
CENTER_NAME    = EARTH
REF_FRAME      = TEME
TIME_SYSTEM    = UTC
MEAN_ELEMENT_THEORY = SGP/SGP4

EPOCH          = 2026-02-08T08:45:10.609632
MEAN_MOTION    = 13.84453091
ECCENTRICITY   = .00009844
INCLINATION    = 50.0066
RA_OF_ASC_NODE = 104.7990
ARG_OF_PERICENTER = 46.0388
MEAN_ANOMALY   = 314.0590

EPHEMERIS_TYPE = 0
CLASSIFICATION_TYPE = U
NORAD_CAT_ID   = 67528
ELEMENT_SET_NO = 999
REV_AT_EPOCH   = 280
BSTAR          = .14213913E-3
MEAN_MOTION_DOT = .16E-6
MEAN_MOTION_DDOT = 0

CCSDS_OMM_VERS = 2.0
CREATION_DATE  = 
ORIGINATOR     = 

OBJECT_NAME    = HULIANWANG DIGUI-153
OBJECT_ID      = 2026-013H
CENTER_NAME    = EARTH
REF_FRAME      = TEME
TIME_SYSTEM    = UTC
MEAN_ELEMENT_THEORY = SGP/SGP4

EPOCH          = 2026-02-08T17:17:25.636704
MEAN_MOTION    = 13.84162298
ECCENTRICITY   = .0002357
INCLINATION    = 50.0043
RA_OF_ASC_NODE = 103.3384
ARG_OF_PERICENTER = 182.0523
MEAN_ANOMALY   = 178.0363

EPHEMERIS_TYPE = 0
CLASSIFICATION_TYPE = U
NORAD_CAT_ID   = 67529
ELEMENT_SET_NO = 999
REV_AT_EPOCH   = 284
BSTAR          = .26262E-4
MEAN_MOTION_DOT = -.114E-5
MEAN_MOTION_DDOT = 0

CCSDS_OMM_VERS = 2.0
CREATION_DATE  = 
ORIGINATOR     = 

OBJECT_NAME    = HULIANWANG DIGUI-154
OBJECT_ID      = 2026-013J
CENTER_NAME    = EARTH
REF_FRAME      = TEME
TIME_SYSTEM    = UTC
MEAN_ELEMENT_THEORY = SGP/SGP4

EPOCH          = 2026-02-08T13:46:05.240928
MEAN_MOTION    = 13.84775018
ECCENTRICITY   = .0001543
INCLINATION    = 49.9994
RA_OF_ASC_NODE = 103.9035
ARG_OF_PERICENTER = 146.1713
MEAN_ANOMALY   = 213.9281

EPHEMERIS_TYPE = 0
CLASSIFICATION_TYPE = U
NORAD_CAT_ID   = 67530
ELEMENT_SET_NO = 999
REV_AT_EPOCH   = 282
BSTAR          = .20075E-3
MEAN_MOTION_DOT = .83E-6
MEAN_MOTION_DDOT = 0

CCSDS_OMM_VERS = 2.0
CREATION_DATE  = 
ORIGINATOR     = 

OBJECT_NAME    = CZ-12 R/B
OBJECT_ID      = 2026-013K
CENTER_NAME    = EARTH
REF_FRAME      = TEME
TIME_SYSTEM    = UTC
MEAN_ELEMENT_THEORY = SGP/SGP4

EPOCH          = 2026-02-08T08:43:28.024320
MEAN_MOTION    = 14.14457886
ECCENTRICITY   = .00687967
INCLINATION    = 49.9934
RA_OF_ASC_NODE = 102.1142
ARG_OF_PERICENTER = 196.8604
MEAN_ANOMALY   = 163.0017

EPHEMERIS_TYPE = 0
CLASSIFICATION_TYPE = U
NORAD_CAT_ID   = 67531
ELEMENT_SET_NO = 999
REV_AT_EPOCH   = 283
BSTAR          = .12193979E-3
MEAN_MOTION_DOT = .85E-6
MEAN_MOTION_DDOT = 0

CCSDS_OMM_VERS = 2.0
CREATION_DATE  = 
ORIGINATOR     = 

OBJECT_NAME    = STARLINK-36587
OBJECT_ID      = 2026-014A
CENTER_NAME    = EARTH
REF_FRAME      = TEME
TIME_SYSTEM    = UTC
MEAN_ELEMENT_THEORY = SGP/SGP4

EPOCH          = 2026-02-09T10:38:43.594368
MEAN_MOTION    = 15.80863593
ECCENTRICITY   = .0001459
INCLINATION    = 97.2825
RA_OF_ASC_NODE = 283.9339
ARG_OF_PERICENTER = 73.7235
MEAN_ANOMALY   = 286.4193

EPHEMERIS_TYPE = 0
CLASSIFICATION_TYPE = U
NORAD_CAT_ID   = 67532
ELEMENT_SET_NO = 999
REV_AT_EPOCH   = 412
BSTAR          = .68827E-3
MEAN_MOTION_DOT = .13403E-2
MEAN_MOTION_DDOT = 0

CCSDS_OMM_VERS = 2.0
CREATION_DATE  = 
ORIGINATOR     = 

OBJECT_NAME    = STARLINK-36417
OBJECT_ID      = 2026-014B
CENTER_NAME    = EARTH
REF_FRAME      = TEME
TIME_SYSTEM    = UTC
MEAN_ELEMENT_THEORY = SGP/SGP4

EPOCH          = 2026-02-09T12:00:01.999296
MEAN_MOTION    = 15.75135533
ECCENTRICITY   = .0001481
INCLINATION    = 97.2841
RA_OF_ASC_NODE = 283.9618
ARG_OF_PERICENTER = 88.7983
MEAN_ANOMALY   = 156.3741

EPHEMERIS_TYPE = 0
CLASSIFICATION_TYPE = U
NORAD_CAT_ID   = 67533
ELEMENT_SET_NO = 999
REV_AT_EPOCH   = 415
BSTAR          = .40107E-3
MEAN_MOTION_DOT = .59972E-3
MEAN_MOTION_DDOT = 0

CCSDS_OMM_VERS = 2.0
CREATION_DATE  = 
ORIGINATOR     = 

OBJECT_NAME    = STARLINK-36576
OBJECT_ID      = 2026-014C
CENTER_NAME    = EARTH
REF_FRAME      = TEME
TIME_SYSTEM    = UTC
MEAN_ELEMENT_THEORY = SGP/SGP4

EPOCH          = 2026-02-09T10:36:43.352352
MEAN_MOTION    = 15.80909580
ECCENTRICITY   = .0001465
INCLINATION    = 97.2828
RA_OF_ASC_NODE = 283.9358
ARG_OF_PERICENTER = 101.1637
MEAN_ANOMALY   = 258.9796

EPHEMERIS_TYPE = 0
CLASSIFICATION_TYPE = U
NORAD_CAT_ID   = 67534
ELEMENT_SET_NO = 999
REV_AT_EPOCH   = 412
BSTAR          = .12833E-2
MEAN_MOTION_DOT = .254041E-2
MEAN_MOTION_DDOT = 0

CCSDS_OMM_VERS = 2.0
CREATION_DATE  = 
ORIGINATOR     = 

OBJECT_NAME    = STARLINK-36574
OBJECT_ID      = 2026-014D
CENTER_NAME    = EARTH
REF_FRAME      = TEME
TIME_SYSTEM    = UTC
MEAN_ELEMENT_THEORY = SGP/SGP4

EPOCH          = 2026-02-09T10:34:52.910688
MEAN_MOTION    = 15.80862044
ECCENTRICITY   = .0001411
INCLINATION    = 97.2830
RA_OF_ASC_NODE = 283.9375
ARG_OF_PERICENTER = 96.7808
MEAN_ANOMALY   = 263.3620

EPHEMERIS_TYPE = 0
CLASSIFICATION_TYPE = U
NORAD_CAT_ID   = 67535
ELEMENT_SET_NO = 999
REV_AT_EPOCH   = 412
BSTAR          = .72141E-3
MEAN_MOTION_DOT = .140585E-2
MEAN_MOTION_DDOT = 0

CCSDS_OMM_VERS = 2.0
CREATION_DATE  = 
ORIGINATOR     = 

OBJECT_NAME    = STARLINK-36572
OBJECT_ID      = 2026-014E
CENTER_NAME    = EARTH
REF_FRAME      = TEME
TIME_SYSTEM    = UTC
MEAN_ELEMENT_THEORY = SGP/SGP4

EPOCH          = 2026-02-09T12:00:01.999296
MEAN_MOTION    = 15.75139037
ECCENTRICITY   = .0001482
INCLINATION    = 97.2836
RA_OF_ASC_NODE = 283.9946
ARG_OF_PERICENTER = 96.2822
MEAN_ANOMALY   = 226.8735

EPHEMERIS_TYPE = 0
CLASSIFICATION_TYPE = U
NORAD_CAT_ID   = 67536
ELEMENT_SET_NO = 999
REV_AT_EPOCH   = 415
BSTAR          = .45367E-3
MEAN_MOTION_DOT = .67929E-3
MEAN_MOTION_DDOT = 0

CCSDS_OMM_VERS = 2.0
CREATION_DATE  = 
ORIGINATOR     = 

OBJECT_NAME    = STARLINK-36561
OBJECT_ID      = 2026-014F
CENTER_NAME    = EARTH
REF_FRAME      = TEME
TIME_SYSTEM    = UTC
MEAN_ELEMENT_THEORY = SGP/SGP4

EPOCH          = 2026-02-09T12:00:01.999296
MEAN_MOTION    = 15.75173101
ECCENTRICITY   = .000172
INCLINATION    = 97.2846
RA_OF_ASC_NODE = 283.9783
ARG_OF_PERICENTER = 95.0784
MEAN_ANOMALY   = 194.0677

EPHEMERIS_TYPE = 0
CLASSIFICATION_TYPE = U
NORAD_CAT_ID   = 67537
ELEMENT_SET_NO = 999
REV_AT_EPOCH   = 415
BSTAR          = .15454E-3
MEAN_MOTION_DOT = .22966E-3
MEAN_MOTION_DDOT = 0

